[{"OBJECT_NAME":"SBIRS GEO-3 (USA 282)","OBJECT_ID":"2018-009A","EPOCH":"2026-05-22T05:06:06.623424","MEAN_MOTION":1.00271625,"ECCENTRICITY":0.00020415,"INCLINATION":2.1677,"RA_OF_ASC_NODE":10.8974,"ARG_OF_PERICENTER":38.6758,"MEAN_ANOMALY":107.3969,"EPHEMERIS_TYPE":0,"CLASSIFICATION_TYPE":"U","NORAD_CAT_ID":43162,"ELEMENT_SET_NO":999,"REV_AT_EPOCH":3058,"BSTAR":0,"MEAN_MOTION_DOT":1.2e-06,"MEAN_MOTION_DDOT":0},{"OBJECT_NAME":"AL YAH 3","OBJECT_ID":"2018-012A","EPOCH":"2026-05-22T02:05:38.526144","MEAN_MOTION":1.00272005,"ECCENTRICITY":0.0004078,"INCLINATION":1.4866,"RA_OF_ASC_NODE":83.397,"ARG_OF_PERICENTER":336.9568,"MEAN_ANOMALY":190.6789,"EPHEMERIS_TYPE":0,"CLASSIFICATION_TYPE":"U","NORAD_CAT_ID":43174,"ELEMENT_SET_NO":999,"REV_AT_EPOCH":3058,"BSTAR":0,"MEAN_MOTION_DOT":-1.63e-06,"MEAN_MOTION_DDOT":0},{"OBJECT_NAME":"SES-14","OBJECT_ID":"2018-012B","EPOCH":"2026-05-22T02:56:03.982848","MEAN_MOTION":1.00271309,"ECCENTRICITY":8.163e-05,"INCLINATION":0.0301,"RA_OF_ASC_NODE":41.2083,"ARG_OF_PERICENTER":12.8898,"MEAN_ANOMALY":182.1741,"EPHEMERIS_TYPE":0,"CLASSIFICATION_TYPE":"U","NORAD_CAT_ID":43175,"ELEMENT_SET_NO":999,"REV_AT_EPOCH":676,"BSTAR":0,"MEAN_MOTION_DOT":-2.87e-06,"MEAN_MOTION_DDOT":0},{"OBJECT_NAME":"GOES 17","OBJECT_ID":"2018-022A","EPOCH":"2026-05-22T05:07:58.380096","MEAN_MOTION":1.00271152,"ECCENTRICITY":4.526e-05,"INCLINATION":0.874,"RA_OF_ASC_NODE":86.0519,"ARG_OF_PERICENTER":328.5482,"MEAN_ANOMALY":172.7506,"EPHEMERIS_TYPE":0,"CLASSIFICATION_TYPE":"U","NORAD_CAT_ID":43226,"ELEMENT_SET_NO":999,"REV_AT_EPOCH":3016,"BSTAR":0,"MEAN_MOTION_DOT":-1.9e-06,"MEAN_MOTION_DDOT":0},{"OBJECT_NAME":"HISPASAT 30W-6","OBJECT_ID":"2018-023A","EPOCH":"2026-05-22T05:26:43.435104","MEAN_MOTION":1.00270061,"ECCENTRICITY":0.00062074,"INCLINATION":0.0479,"RA_OF_ASC_NODE":43.4002,"ARG_OF_PERICENTER":11.9705,"MEAN_ANOMALY":236.167,"EPHEMERIS_TYPE":0,"CLASSIFICATION_TYPE":"U","NORAD_CAT_ID":43228,"ELEMENT_SET_NO":999,"REV_AT_EPOCH":3014,"BSTAR":0,"MEAN_MOTION_DOT":-2.24e-06,"MEAN_MOTION_DDOT":0},{"OBJECT_NAME":"SUPERBIRD-B3","OBJECT_ID":"2018-033A","EPOCH":"2026-05-22T04:38:54.545568","MEAN_MOTION":1.00271364,"ECCENTRICITY":9.648e-05,"INCLINATION":0.0212,"RA_OF_ASC_NODE":47.8183,"ARG_OF_PERICENTER":359.7854,"MEAN_ANOMALY":63.9553,"EPHEMERIS_TYPE":0,"CLASSIFICATION_TYPE":"U","NORAD_CAT_ID":43271,"ELEMENT_SET_NO":999,"REV_AT_EPOCH":2980,"BSTAR":0,"MEAN_MOTION_DOT":-1e-06,"MEAN_MOTION_DDOT":0},{"OBJECT_NAME":"HYLAS 4","OBJECT_ID":"2018-033B","EPOCH":"2026-05-22T05:25:43.531392","MEAN_MOTION":1.00270055,"ECCENTRICITY":0.00013942,"INCLINATION":0.0431,"RA_OF_ASC_NODE":93.8713,"ARG_OF_PERICENTER":340.9467,"MEAN_ANOMALY":212.9353,"EPHEMERIS_TYPE":0,"CLASSIFICATION_TYPE":"U","NORAD_CAT_ID":43272,"ELEMENT_SET_NO":999,"REV_AT_EPOCH":2980,"BSTAR":0,"MEAN_MOTION_DOT":-2.42e-06,"MEAN_MOTION_DDOT":0},{"OBJECT_NAME":"IRNSS-1I","OBJECT_ID":"2018-035A","EPOCH":"2026-05-21T21:17:45.060576","MEAN_MOTION":1.00272742,"ECCENTRICITY":0.00174003,"INCLINATION":29.1147,"RA_OF_ASC_NODE":74.6014,"ARG_OF_PERICENTER":181.6056,"MEAN_ANOMALY":357.7477,"EPHEMERIS_TYPE":0,"CLASSIFICATION_TYPE":"U","NORAD_CAT_ID":43286,"ELEMENT_SET_NO":999,"REV_AT_EPOCH":2981,"BSTAR":0,"MEAN_MOTION_DOT":7.5e-07,"MEAN_MOTION_DDOT":0},{"OBJECT_NAME":"USA 283","OBJECT_ID":"2018-036A","EPOCH":"2026-05-20T12:45:38.714112","MEAN_MOTION":1.00268653,"ECCENTRICITY":7e-06,"INCLINATION":0.0119,"RA_OF_ASC_NODE":319.401,"ARG_OF_PERICENTER":299.3161,"MEAN_ANOMALY":304.9772,"EPHEMERIS_TYPE":0,"CLASSIFICATION_TYPE":"U","NORAD_CAT_ID":43339,"ELEMENT_SET_NO":999,"REV_AT_EPOCH":2501,"BSTAR":0,"MEAN_MOTION_DOT":0,"MEAN_MOTION_DDOT":0},{"OBJECT_NAME":"COSMOS 2526","OBJECT_ID":"2018-037A","EPOCH":"2026-05-22T06:11:54.103776","MEAN_MOTION":1.00271623,"ECCENTRICITY":6.807e-05,"INCLINATION":0.003,"RA_OF_ASC_NODE":58.4624,"ARG_OF_PERICENTER":171.8974,"MEAN_ANOMALY":230.5702,"EPHEMERIS_TYPE":0,"CLASSIFICATION_TYPE":"U","NORAD_CAT_ID":43432,"ELEMENT_SET_NO":999,"REV_AT_EPOCH":2970,"BSTAR":0,"MEAN_MOTION_DOT":-3.53e-06,"MEAN_MOTION_DDOT":0},{"OBJECT_NAME":"APSTAR-6C","OBJECT_ID":"2018-041A","EPOCH":"2026-05-21T18:14:55.457376","MEAN_MOTION":1.00269156,"ECCENTRICITY":0.0001746,"INCLINATION":0.0434,"RA_OF_ASC_NODE":26.8212,"ARG_OF_PERICENTER":321.8171,"MEAN_ANOMALY":298.4726,"EPHEMERIS_TYPE":0,"CLASSIFICATION_TYPE":"U","NORAD_CAT_ID":43450,"ELEMENT_SET_NO":999,"REV_AT_EPOCH":2954,"BSTAR":0,"MEAN_MOTION_DOT":-3.26e-06,"MEAN_MOTION_DDOT":0},{"OBJECT_NAME":"BANGABANDHUSAT-1","OBJECT_ID":"2018-044A","EPOCH":"2026-05-22T01:01:15.265056","MEAN_MOTION":1.00272884,"ECCENTRICITY":0.0001778,"INCLINATION":0.0332,"RA_OF_ASC_NODE":94.9968,"ARG_OF_PERICENTER":320.1804,"MEAN_ANOMALY":318.9117,"EPHEMERIS_TYPE":0,"CLASSIFICATION_TYPE":"U","NORAD_CAT_ID":43463,"ELEMENT_SET_NO":999,"REV_AT_EPOCH":2944,"BSTAR":0,"MEAN_MOTION_DOT":-3.7e-06,"MEAN_MOTION_DDOT":0},{"OBJECT_NAME":"SES-12","OBJECT_ID":"2018-049A","EPOCH":"2026-05-22T04:24:21.591936","MEAN_MOTION":1.00272408,"ECCENTRICITY":0.00013825,"INCLINATION":0.0405,"RA_OF_ASC_NODE":64.0725,"ARG_OF_PERICENTER":244.8013,"MEAN_ANOMALY":92.0444,"EPHEMERIS_TYPE":0,"CLASSIFICATION_TYPE":"U","NORAD_CAT_ID":43488,"ELEMENT_SET_NO":999,"REV_AT_EPOCH":2915,"BSTAR":0,"MEAN_MOTION_DOT":-2.78e-06,"MEAN_MOTION_DDOT":0},{"OBJECT_NAME":"FENGYUN 2H","OBJECT_ID":"2018-050A","EPOCH":"2026-05-22T02:32:40.543584","MEAN_MOTION":1.00271872,"ECCENTRICITY":0.00017403,"INCLINATION":2.9662,"RA_OF_ASC_NODE":79.3588,"ARG_OF_PERICENTER":148.4075,"MEAN_ANOMALY":129.5759,"EPHEMERIS_TYPE":0,"CLASSIFICATION_TYPE":"U","NORAD_CAT_ID":43491,"ELEMENT_SET_NO":999,"REV_AT_EPOCH":2917,"BSTAR":0,"MEAN_MOTION_DOT":-1.38e-06,"MEAN_MOTION_DDOT":0},{"OBJECT_NAME":"BEIDOU-2 IGSO-7","OBJECT_ID":"2018-057A","EPOCH":"2026-05-21T23:16:45.212736","MEAN_MOTION":1.0025888,"ECCENTRICITY":0.01042923,"INCLINATION":55.1886,"RA_OF_ASC_NODE":163.2862,"ARG_OF_PERICENTER":237.9976,"MEAN_ANOMALY":299.2112,"EPHEMERIS_TYPE":0,"CLASSIFICATION_TYPE":"U","NORAD_CAT_ID":43539,"ELEMENT_SET_NO":999,"REV_AT_EPOCH":2886,"BSTAR":0,"MEAN_MOTION_DOT":-4.1e-07,"MEAN_MOTION_DDOT":0},{"OBJECT_NAME":"TELSTAR 19V","OBJECT_ID":"2018-059A","EPOCH":"2026-05-22T00:09:25.163136","MEAN_MOTION":1.00269271,"ECCENTRICITY":0.0002178,"INCLINATION":0.0327,"RA_OF_ASC_NODE":160.869,"ARG_OF_PERICENTER":301.4964,"MEAN_ANOMALY":76.6243,"EPHEMERIS_TYPE":0,"CLASSIFICATION_TYPE":"U","NORAD_CAT_ID":43562,"ELEMENT_SET_NO":999,"REV_AT_EPOCH":2888,"BSTAR":0,"MEAN_MOTION_DOT":-2.88e-06,"MEAN_MOTION_DDOT":0},{"OBJECT_NAME":"TELKOM 4 (MERAH PUTIH)","OBJECT_ID":"2018-064A","EPOCH":"2026-05-22T06:06:02.166336","MEAN_MOTION":1.00273095,"ECCENTRICITY":0.00011515,"INCLINATION":0.0159,"RA_OF_ASC_NODE":277.1388,"ARG_OF_PERICENTER":154.1718,"MEAN_ANOMALY":8.0812,"EPHEMERIS_TYPE":0,"CLASSIFICATION_TYPE":"U","NORAD_CAT_ID":43587,"ELEMENT_SET_NO":999,"REV_AT_EPOCH":2861,"BSTAR":0,"MEAN_MOTION_DOT":-3.52e-06,"MEAN_MOTION_DDOT":0},{"OBJECT_NAME":"TELSTAR 18V","OBJECT_ID":"2018-069A","EPOCH":"2026-05-22T06:14:38.840928","MEAN_MOTION":1.00270152,"ECCENTRICITY":0.00017812,"INCLINATION":0.0134,"RA_OF_ASC_NODE":293.0959,"ARG_OF_PERICENTER":118.7785,"MEAN_ANOMALY":59.6628,"EPHEMERIS_TYPE":0,"CLASSIFICATION_TYPE":"U","NORAD_CAT_ID":43611,"ELEMENT_SET_NO":999,"REV_AT_EPOCH":2838,"BSTAR":0,"MEAN_MOTION_DOT":-3.02e-06,"MEAN_MOTION_DDOT":0},{"OBJECT_NAME":"AZERSPACE 2 (IS-38)","OBJECT_ID":"2018-074A","EPOCH":"2026-05-22T04:05:35.240928","MEAN_MOTION":1.00270698,"ECCENTRICITY":0.000127,"INCLINATION":0.0171,"RA_OF_ASC_NODE":299.6995,"ARG_OF_PERICENTER":113.2655,"MEAN_ANOMALY":293.3463,"EPHEMERIS_TYPE":0,"CLASSIFICATION_TYPE":"U","NORAD_CAT_ID":43632,"ELEMENT_SET_NO":999,"REV_AT_EPOCH":2818,"BSTAR":0,"MEAN_MOTION_DOT":1.28e-06,"MEAN_MOTION_DDOT":0},{"OBJECT_NAME":"HORIZONS-3E","OBJECT_ID":"2018-074B","EPOCH":"2026-05-22T04:40:54.354720","MEAN_MOTION":1.00270118,"ECCENTRICITY":8.596e-05,"INCLINATION":0.0207,"RA_OF_ASC_NODE":86.7786,"ARG_OF_PERICENTER":200.8936,"MEAN_ANOMALY":191.3672,"EPHEMERIS_TYPE":0,"CLASSIFICATION_TYPE":"U","NORAD_CAT_ID":43633,"ELEMENT_SET_NO":999,"REV_AT_EPOCH":2808,"BSTAR":0,"MEAN_MOTION_DOT":-3.9e-07,"MEAN_MOTION_DDOT":0},{"OBJECT_NAME":"AEHF-4 (USA 288)","OBJECT_ID":"2018-079A","EPOCH":"2026-05-22T05:21:23.164992","MEAN_MOTION":1.00269388,"ECCENTRICITY":0.00621388,"INCLINATION":1.4279,"RA_OF_ASC_NODE":1.7739,"ARG_OF_PERICENTER":357.3042,"MEAN_ANOMALY":253.5969,"EPHEMERIS_TYPE":0,"CLASSIFICATION_TYPE":"U","NORAD_CAT_ID":43651,"ELEMENT_SET_NO":999,"REV_AT_EPOCH":2803,"BSTAR":0,"MEAN_MOTION_DOT":-2.83e-06,"MEAN_MOTION_DDOT":0},{"OBJECT_NAME":"BEIDOU-3 G1","OBJECT_ID":"2018-085A","EPOCH":"2026-05-22T06:33:35.655840","MEAN_MOTION":1.00271303,"ECCENTRICITY":0.00078524,"INCLINATION":2.8042,"RA_OF_ASC_NODE":98.0718,"ARG_OF_PERICENTER":341.9456,"MEAN_ANOMALY":58.2536,"EPHEMERIS_TYPE":0,"CLASSIFICATION_TYPE":"U","NORAD_CAT_ID":43683,"ELEMENT_SET_NO":999,"REV_AT_EPOCH":2780,"BSTAR":0,"MEAN_MOTION_DOT":-1.16e-06,"MEAN_MOTION_DDOT":0},{"OBJECT_NAME":"GSAT-29","OBJECT_ID":"2018-089A","EPOCH":"2026-05-22T05:51:03.602016","MEAN_MOTION":1.00273307,"ECCENTRICITY":0.00032574,"INCLINATION":0.0129,"RA_OF_ASC_NODE":247.6935,"ARG_OF_PERICENTER":160.2784,"MEAN_ANOMALY":334.7252,"EPHEMERIS_TYPE":0,"CLASSIFICATION_TYPE":"U","NORAD_CAT_ID":43698,"ELEMENT_SET_NO":999,"REV_AT_EPOCH":2752,"BSTAR":0,"MEAN_MOTION_DOT":7.7e-07,"MEAN_MOTION_DDOT":0},{"OBJECT_NAME":"ES'HAIL 2","OBJECT_ID":"2018-090A","EPOCH":"2026-05-22T05:42:41.904000","MEAN_MOTION":1.00271342,"ECCENTRICITY":0.00013903,"INCLINATION":0.0134,"RA_OF_ASC_NODE":6.0149,"ARG_OF_PERICENTER":83.2975,"MEAN_ANOMALY":262.0192,"EPHEMERIS_TYPE":0,"CLASSIFICATION_TYPE":"U","NORAD_CAT_ID":43700,"ELEMENT_SET_NO":999,"REV_AT_EPOCH":2741,"BSTAR":0,"MEAN_MOTION_DOT":1.36e-06,"MEAN_MOTION_DDOT":0}]